{"type": "FeatureCollection", "features": [ {"type": "Feature", "properties": {"norad_id": 66808, "name": "STARLINK-36071", "group": "last-30-days", "lat": -42.4825521961204, "lon": 105.36372276961194, "alt_km": 380.501899757488, "timestamp": "2025-12-20T07:33:49.514382+00:00", "meta": {"OBJECT_NAME": "STARLINK-36071", "OBJECT_ID": "2025-278T", "EPOCH": "2025-12-19T22:00:01.999584", "MEAN_MOTION": 15.64972945, "ECCENTRICITY": 0.00011513, "INCLINATION": 42.9989, "RA_OF_ASC_NODE": 208.3871, "ARG_OF_PERICENTER": 268.9351, "MEAN_ANOMALY": 266.8293, "EPHEMERIS_TYPE": 0, "CLASSIFICATION_TYPE": "U", "NORAD_CAT_ID": 66808, "ELEMENT_SET_NO": 999, "REV_AT_EPOCH": 411, "BSTAR": -0.022167166, "MEAN_MOTION_DOT": -0.01971273, "MEAN_MOTION_DDOT": 0}, "tle": {"line1": "1 66808U 25278T   25353.91668981 -.01971273  00000+0 -22167-1 0  9998", "line2": "2 66808  42.9989 208.3871 0001151 268.9351 266.8293 15.64972945  4116"}}, "geometry": {"type": "Point", "coordinates": [105.36372276961194, -42.4825521961204]}}, {"type": "Feature", "properties": {"norad_id": 66809, "name": "STARLINK-35979", "group": "last-30-days", "lat": -42.94329745508635, "lon": 113.14402972531373, "alt_km": 380.5010135131188, "timestamp": "2025-12-20T07:33:49.514392+00:00", "meta": {"OBJECT_NAME": "STARLINK-35979", "OBJECT_ID": "2025-278U", "EPOCH": "2025-12-19T22:00:01.999584", "MEAN_MOTION": 15.64965484, "ECCENTRICITY": 0.00011464, "INCLINATION": 42.9993, "RA_OF_ASC_NODE": 208.3718, "ARG_OF_PERICENTER": 271.6941, "MEAN_ANOMALY": 269.823, "EPHEMERIS_TYPE": 0, "CLASSIFICATION_TYPE": "U", "NORAD_CAT_ID": 66809, "ELEMENT_SET_NO": 999, "REV_AT_EPOCH": 411, "BSTAR": -0.021973721, "MEAN_MOTION_DOT": -0.01955595, "MEAN_MOTION_DDOT": 0}, "tle": {"line1": "1 66809U 25278U   25353.91668981 -.01955595  00000+0 -21974-1 0  9993", "line2": "2 66809  42.9993 208.3718 0001146 271.6941 269.8230 15.64965484  4116"}}, "geometry": {"type": "Point", "coordinates": [113.14402972531373, -42.94329745508635]}}, {"type": "Feature", "properties": {"norad_id": 66810, "name": "STARLINK-36046", "group": "last-30-days", "lat": -42.69507017840391, "lon": 107.94443184660227, "alt_km": 380.4425793419041, "timestamp": "2025-12-20T07:33:49.514402+00:00", "meta": {"OBJECT_NAME": "STARLINK-36046", "OBJECT_ID": "2025-278V", "EPOCH": "2025-12-19T22:00:01.999584", "MEAN_MOTION": 15.64967292, "ECCENTRICITY": 0.00012213, "INCLINATION": 42.9993, "RA_OF_ASC_NODE": 208.3831, "ARG_OF_PERICENTER": 269.6364, "MEAN_ANOMALY": 268.0444, "EPHEMERIS_TYPE": 0, "CLASSIFICATION_TYPE": "U", "NORAD_CAT_ID": 66810, "ELEMENT_SET_NO": 999, "REV_AT_EPOCH": 388, "BSTAR": -0.02200078, "MEAN_MOTION_DOT": -0.01957897, "MEAN_MOTION_DDOT": 0}, "tle": {"line1": "1 66810U 25278V   25353.91668981 -.01957897  00000+0 -22001-1 0  9994", "line2": "2 66810  42.9993 208.3831 0001221 269.6364 268.0444 15.64967292  3884"}}, "geometry": {"type": "Point", "coordinates": [107.94443184660227, -42.69507017840391]}}, {"type": "Feature", "properties": {"norad_id": 66811, "name": "STARLINK-36045", "group": "last-30-days", "lat": -42.848521018189885, "lon": 110.54146630196266, "alt_km": 380.48242684167144, "timestamp": "2025-12-20T07:33:49.514412+00:00", "meta": {"OBJECT_NAME": "STARLINK-36045", "OBJECT_ID": "2025-278W", "EPOCH": "2025-12-19T22:00:01.999584", "MEAN_MOTION": 15.64968266, "ECCENTRICITY": 0.00011782, "INCLINATION": 42.999, "RA_OF_ASC_NODE": 208.378, "ARG_OF_PERICENTER": 267.4398, "MEAN_ANOMALY": 272.1608, "EPHEMERIS_TYPE": 0, "CLASSIFICATION_TYPE": "U", "NORAD_CAT_ID": 66811, "ELEMENT_SET_NO": 999, "REV_AT_EPOCH": 411, "BSTAR": -0.022062301, "MEAN_MOTION_DOT": -0.01962755, "MEAN_MOTION_DDOT": 0}, "tle": {"line1": "1 66811U 25278W   25353.91668981 -.01962755  00000+0 -22062-1 0  9991", "line2": "2 66811  42.9990 208.3780 0001178 267.4398 272.1608 15.64968266  4116"}}, "geometry": {"type": "Point", "coordinates": [110.54146630196266, -42.848521018189885]}}, {"type": "Feature", "properties": {"norad_id": 66812, "name": "STARLINK-36054", "group": "last-30-days", "lat": -42.978299315399425, "lon": 115.75741226320896, "alt_km": 380.4910184959772, "timestamp": "2025-12-20T07:33:49.514422+00:00", "meta": {"OBJECT_NAME": "STARLINK-36054", "OBJECT_ID": "2025-278X", "EPOCH": "2025-12-19T22:00:01.999584", "MEAN_MOTION": 15.64969999, "ECCENTRICITY": 0.00011706, "INCLINATION": 42.9992, "RA_OF_ASC_NODE": 208.3683, "ARG_OF_PERICENTER": 269.0545, "MEAN_ANOMALY": 274.3789, "EPHEMERIS_TYPE": 0, "CLASSIFICATION_TYPE": "U", "NORAD_CAT_ID": 66812, "ELEMENT_SET_NO": 999, "REV_AT_EPOCH": 411, "BSTAR": -0.02207599, "MEAN_MOTION_DOT": -0.01963942, "MEAN_MOTION_DDOT": 0}, "tle": {"line1": "1 66812U 25278X   25353.91668981 -.01963942  00000+0 -22076-1 0  9996", "line2": "2 66812  42.9992 208.3683 0001170 269.0545 274.3789 15.64969999  4113"}}, "geometry": {"type": "Point", "coordinates": [115.75741226320896, -42.978299315399425]}}, {"type": "Feature", "properties": {"norad_id": 66813, "name": "STARLINK-36042", "group": "last-30-days", "lat": -42.95370113606066, "lon": 118.36737265616645, "alt_km": 380.540832927707, "timestamp": "2025-12-20T07:33:49.514434+00:00", "meta": {"OBJECT_NAME": "STARLINK-36042", "OBJECT_ID": "2025-278Y", "EPOCH": "2025-12-19T22:00:01.999584", "MEAN_MOTION": 15.6496541, "ECCENTRICITY": 0.00010897, "INCLINATION": 42.9991, "RA_OF_ASC_NODE": 208.3629, "ARG_OF_PERICENTER": 271.8495, "MEAN_ANOMALY": 273.5027, "EPHEMERIS_TYPE": 0, "CLASSIFICATION_TYPE": "U", "NORAD_CAT_ID": 66813, "ELEMENT_SET_NO": 999, "REV_AT_EPOCH": 411, "BSTAR": -0.021987073, "MEAN_MOTION_DOT": -0.01956597, "MEAN_MOTION_DDOT": 0}, "tle": {"line1": "1 66813U 25278Y   25353.91668981 -.01956597  00000+0 -21987-1 0  9995", "line2": "2 66813  42.9991 208.3629 0001089 271.8495 273.5027 15.64965410  4117"}}, "geometry": {"type": "Point", "coordinates": [118.36737265616645, -42.95370113606066]}}, {"type": "Feature", "properties": {"norad_id": 66814, "name": "STARLINK-35984", "group": "last-30-days", "lat": -41.576716554626046, "lon": 133.77292389943116, "alt_km": 380.4316592660116, "timestamp": "2025-12-20T07:33:49.514446+00:00", "meta": {"OBJECT_NAME": "STARLINK-35984", "OBJECT_ID": "2025-278Z", "EPOCH": "2025-12-19T22:00:01.999584", "MEAN_MOTION": 15.64969851, "ECCENTRICITY": 0.00012267, "INCLINATION": 42.9991, "RA_OF_ASC_NODE": 208.3338, "ARG_OF_PERICENTER": 267.0191, "MEAN_ANOMALY": 289.8323, "EPHEMERIS_TYPE": 0, "CLASSIFICATION_TYPE": "U", "NORAD_CAT_ID": 66814, "ELEMENT_SET_NO": 999, "REV_AT_EPOCH": 420, "BSTAR": -0.022051463, "MEAN_MOTION_DOT": -0.01962051, "MEAN_MOTION_DDOT": 0}, "tle": {"line1": "1 66814U 25278Z   25353.91668981 -.01962051  00000+0 -22051-1 0  9991", "line2": "2 66814  42.9991 208.3338 0001226 267.0191 289.8323 15.64969851  4200"}}, "geometry": {"type": "Point", "coordinates": [133.77292389943116, -41.576716554626046]}}, {"type": "Feature", "properties": {"norad_id": 66815, "name": "STARLINK-35985", "group": "last-30-days", "lat": -41.948857032317036, "lon": 131.25938959144625, "alt_km": 380.4660152252218, "timestamp": "2025-12-20T07:33:49.514457+00:00", "meta": {"OBJECT_NAME": "STARLINK-35985", "OBJECT_ID": "2025-278AA", "EPOCH": "2025-12-19T22:00:01.999584", "MEAN_MOTION": 15.64964742, "ECCENTRICITY": 0.0001201, "INCLINATION": 42.9992, "RA_OF_ASC_NODE": 208.3384, "ARG_OF_PERICENTER": 264.8224, "MEAN_ANOMALY": 290.114, "EPHEMERIS_TYPE": 0, "CLASSIFICATION_TYPE": "U", "NORAD_CAT_ID": 66815, "ELEMENT_SET_NO": 999, "REV_AT_EPOCH": 420, "BSTAR": -0.021975076, "MEAN_MOTION_DOT": -0.0195569, "MEAN_MOTION_DDOT": 0}, "tle": {"line1": "1 66815U 25278AA  25353.91668981 -.01955690  00000+0 -21975-1 0  9997", "line2": "2 66815  42.9992 208.3384 0001201 264.8224 290.1140 15.64964742  4204"}}, "geometry": {"type": "Point", "coordinates": [131.25938959144625, -41.948857032317036]}}, {"type": "Feature", "properties": {"norad_id": 66816, "name": "STARLINK-36098", "group": "last-30-days", "lat": -42.86982691630515, "lon": 120.97376078176391, "alt_km": 380.4976678146586, "timestamp": "2025-12-20T07:33:49.514491+00:00", "meta": {"OBJECT_NAME": "STARLINK-36098", "OBJECT_ID": "2025-278AB", "EPOCH": "2025-12-19T22:00:01.999584", "MEAN_MOTION": 15.64970295, "ECCENTRICITY": 0.00011439, "INCLINATION": 42.9992, "RA_OF_ASC_NODE": 208.358, "ARG_OF_PERICENTER": 269.7315, "MEAN_ANOMALY": 277.5325, "EPHEMERIS_TYPE": 0, "CLASSIFICATION_TYPE": "U", "NORAD_CAT_ID": 66816, "ELEMENT_SET_NO": 999, "REV_AT_EPOCH": 395, "BSTAR": -0.022030943, "MEAN_MOTION_DOT": -0.01960414, "MEAN_MOTION_DDOT": 0}, "tle": {"line1": "1 66816U 25278AB  25353.91668981 -.01960414  00000+0 -22031-1 0  9992", "line2": "2 66816  42.9992 208.3580 0001143 269.7315 277.5325 15.64970295  3958"}}, "geometry": {"type": "Point", "coordinates": [120.97376078176391, -42.86982691630515]}}, {"type": "Feature", "properties": {"norad_id": 66817, "name": "STARLINK-35995", "group": "last-30-days", "lat": -42.524902510968346, "lon": 126.15520482785925, "alt_km": 380.4983714395594, "timestamp": "2025-12-20T07:33:49.514502+00:00", "meta": {"OBJECT_NAME": "STARLINK-35995", "OBJECT_ID": "2025-278AC", "EPOCH": "2025-12-19T22:00:01.999584", "MEAN_MOTION": 15.6496913, "ECCENTRICITY": 0.00011534, "INCLINATION": 42.9993, "RA_OF_ASC_NODE": 208.348, "ARG_OF_PERICENTER": 268.0159, "MEAN_ANOMALY": 283.0864, "EPHEMERIS_TYPE": 0, "CLASSIFICATION_TYPE": "U", "NORAD_CAT_ID": 66817, "ELEMENT_SET_NO": 999, "REV_AT_EPOCH": 411, "BSTAR": -0.022063687, "MEAN_MOTION_DOT": -0.01962906, "MEAN_MOTION_DDOT": 0}, "tle": {"line1": "1 66817U 25278AC  25353.91668981 -.01962906  00000+0 -22064-1 0  9997", "line2": "2 66817  42.9993 208.3480 0001153 268.0159 283.0864 15.64969130  4113"}}, "geometry": {"type": "Point", "coordinates": [126.15520482785925, -42.524902510968346]}}]}